[{"OBJECT_NAME":"STARLINK-32804","OBJECT_ID":"2025-019T","EPOCH":"2026-03-09T10:45:52.428672","MEAN_MOTION":15.2759978,"ECCENTRICITY":0.00028227,"INCLINATION":43.0083,"RA_OF_ASC_NODE":90.3825,"ARG_OF_PERICENTER":284.4195,"MEAN_ANOMALY":75.6344,"EPHEMERIS_TYPE":0,"CLASSIFICATION_TYPE":"U","NORAD_CAT_ID":62846,"ELEMENT_SET_NO":999,"REV_AT_EPOCH":6221,"BSTAR":0.00083860627,"MEAN_MOTION_DOT":0.00022901,"MEAN_MOTION_DDOT":0},{"OBJECT_NAME":"ELECTRON KICK STAGE R\/B","OBJECT_ID":"2023-100H","EPOCH":"2026-03-09T16:45:37.763136","MEAN_MOTION":14.68103413,"ECCENTRICITY":0.03085221,"INCLINATION":99.3329,"RA_OF_ASC_NODE":332.428,"ARG_OF_PERICENTER":173.253,"MEAN_ANOMALY":187.2976,"EPHEMERIS_TYPE":0,"CLASSIFICATION_TYPE":"U","NORAD_CAT_ID":57393,"ELEMENT_SET_NO":999,"REV_AT_EPOCH":14066,"BSTAR":0.00057943845,"MEAN_MOTION_DOT":6.836e-5,"MEAN_MOTION_DDOT":0}]
